{
  "type": "FeatureCollection",
  "features": [
    {
      "type": "Feature",
      "properties": {
        "norad_id": 63632,
        "name": "SHENZHOU-20 (SZ-20)",
        "group": "stations",
        "lat": -23.98831052374169,
        "lon": -70.13988336211816,
        "alt_km": 394.75252975263265,
        "timestamp": "2025-12-02T08:59:31.521511+00:00",
        "meta_object_name": "SHENZHOU-20 (SZ-20)",
        "meta_object_id": "2025-082A",
        "meta_epoch": "2025-12-01T15:08:36.996864",
        "meta_mean_motion": 15.5848082,
        "meta_eccentricity": 0.00103969,
        "meta_inclination": 41.4671,
        "meta_ra_of_asc_node": 84.1132,
        "meta_arg_of_pericenter": 308.0304,
        "meta_mean_anomaly": 51.9595,
        "meta_ephemeris_type": 0,
        "meta_classification_type": "U",
        "meta_norad_cat_id": 63632,
        "meta_element_set_no": 999,
        "meta_rev_at_epoch": 25530,
        "meta_bstar": 0.00025188161,
        "meta_mean_motion_dot": 0.00019534,
        "meta_mean_motion_ddot": 0,
        "tle_line1": "1 63632U 25082A   25335.63098376  .00019534  00000+0  25188-3 0  9995",
        "tle_line2": "2 63632  41.4671  84.1132 0010396 308.0304  51.9595 15.58480820255301"
      },
      "geometry": {
        "type": "Point",
        "coordinates": [
          -70.13988336211816,
          -23.98831052374169
        ]
      }
    },
    {
      "type": "Feature",
      "properties": {
        "norad_id": 64751,
        "name": "PROGRESS-MS 31",
        "group": "stations",
        "lat": 32.801003514941584,
        "lon": -16.91310805914864,
        "alt_km": 413.3608652304656,
        "timestamp": "2025-12-02T08:59:31.521521+00:00",
        "meta_object_name": "PROGRESS-MS 31",
        "meta_object_id": "2025-146A",
        "meta_epoch": "2025-12-01T13:49:44.445504",
        "meta_mean_motion": 15.49226524,
        "meta_eccentricity": 0.00036473,
        "meta_inclination": 51.6309,
        "meta_ra_of_asc_node": 197.7449,
        "meta_arg_of_pericenter": 190.9481,
        "meta_mean_anomaly": 169.1428,
        "meta_ephemeris_type": 0,
        "meta_classification_type": "U",
        "meta_norad_cat_id": 64751,
        "meta_element_set_no": 999,
        "meta_rev_at_epoch": 675,
        "meta_bstar": 0.00016365535,
        "meta_mean_motion_dot": 8.648e-05,
        "meta_mean_motion_ddot": 0,
        "tle_line1": "1 64751U 25146A   25335.57620886  .00008648  00000+0  16366-3 0  9991",
        "tle_line2": "2 64751  51.6309 197.7449 0003647 190.9481 169.1428 15.49226524  6751"
      },
      "geometry": {
        "type": "Point",
        "coordinates": [
          -16.91310805914864,
          32.801003514941584
        ]
      }
    },
    {
      "type": "Feature",
      "properties": {
        "norad_id": 64786,
        "name": "TIANZHOU-9",
        "group": "stations",
        "lat": -23.98831126646431,
        "lon": -70.1398821969746,
        "alt_km": 394.7525296513104,
        "timestamp": "2025-12-02T08:59:31.521531+00:00",
        "meta_object_name": "TIANZHOU-9",
        "meta_object_id": "2025-149A",
        "meta_epoch": "2025-12-01T15:08:36.996864",
        "meta_mean_motion": 15.5848082,
        "meta_eccentricity": 0.00103969,
        "meta_inclination": 41.4671,
        "meta_ra_of_asc_node": 84.1132,
        "meta_arg_of_pericenter": 308.0304,
        "meta_mean_anomaly": 51.9595,
        "meta_ephemeris_type": 0,
        "meta_classification_type": "U",
        "meta_norad_cat_id": 64786,
        "meta_element_set_no": 999,
        "meta_rev_at_epoch": 25530,
        "meta_bstar": 0.00025188161,
        "meta_mean_motion_dot": 0.00019534,
        "meta_mean_motion_ddot": 0,
        "tle_line1": "1 64786U 25149A   25335.63098376  .00019534  00000+0  25188-3 0  9990",
        "tle_line2": "2 64786  41.4671  84.1132 0010396 308.0304  51.9595 15.58480820255302"
      },
      "geometry": {
        "type": "Point",
        "coordinates": [
          -70.1398821969746,
          -23.98831126646431
        ]
      }
    },
    {
      "type": "Feature",
      "properties": {
        "norad_id": 65077,
        "name": "CREW DRAGON 11",
        "group": "stations",
        "lat": 32.801002642910234,
        "lon": -16.913106923004626,
        "alt_km": 413.3608653237543,
        "timestamp": "2025-12-02T08:59:31.521541+00:00",
        "meta_object_name": "CREW DRAGON 11",
        "meta_object_id": "2025-166A",
        "meta_epoch": "2025-12-01T13:49:44.445504",
        "meta_mean_motion": 15.49226524,
        "meta_eccentricity": 0.00036473,
        "meta_inclination": 51.6309,
        "meta_ra_of_asc_node": 197.7449,
        "meta_arg_of_pericenter": 190.9481,
        "meta_mean_anomaly": 169.1428,
        "meta_ephemeris_type": 0,
        "meta_classification_type": "U",
        "meta_norad_cat_id": 65077,
        "meta_element_set_no": 999,
        "meta_rev_at_epoch": 214,
        "meta_bstar": 0.00016365535,
        "meta_mean_motion_dot": 8.648e-05,
        "meta_mean_motion_ddot": 0,
        "tle_line1": "1 65077U 25166A   25335.57620886  .00008648  00000+0  16366-3 0  9995",
        "tle_line2": "2 65077  51.6309 197.7449 0003647 190.9481 169.1428 15.49226524  2142"
      },
      "geometry": {
        "type": "Point",
        "coordinates": [
          -16.913106923004626,
          32.801002642910234
        ]
      }
    },
    {
      "type": "Feature",
      "properties": {
        "norad_id": 65304,
        "name": "DRAGON CRS-33",
        "group": "stations",
        "lat": 32.80100216329433,
        "lon": -16.913106298127193,
        "alt_km": 413.36086537506344,
        "timestamp": "2025-12-02T08:59:31.521552+00:00",
        "meta_object_name": "DRAGON CRS-33",
        "meta_object_id": "2025-186A",
        "meta_epoch": "2025-12-01T13:49:44.445504",
        "meta_mean_motion": 15.49226524,
        "meta_eccentricity": 0.00036473,
        "meta_inclination": 51.6309,
        "meta_ra_of_asc_node": 197.7449,
        "meta_arg_of_pericenter": 190.9481,
        "meta_mean_anomaly": 169.1428,
        "meta_ephemeris_type": 0,
        "meta_classification_type": "U",
        "meta_norad_cat_id": 65304,
        "meta_element_set_no": 999,
        "meta_rev_at_epoch": 11,
        "meta_bstar": 0.00016365535,
        "meta_mean_motion_dot": 8.648e-05,
        "meta_mean_motion_ddot": 0,
        "tle_line1": "1 65304U 25186A   25335.57620886  .00008648  00000+0  16366-3 0  9990",
        "tle_line2": "2 65304  51.6309 197.7449 0003647 190.9481 169.1428 15.49226524   110"
      },
      "geometry": {
        "type": "Point",
        "coordinates": [
          -16.913106298127193,
          32.80100216329433
        ]
      }
    },
    {
      "type": "Feature",
      "properties": {
        "norad_id": 65586,
        "name": "PROGRESS-MS 32",
        "group": "stations",
        "lat": 32.80100150927244,
        "lon": -16.913105446021362,
        "alt_km": 413.36086544502905,
        "timestamp": "2025-12-02T08:59:31.521567+00:00",
        "meta_object_name": "PROGRESS-MS 32",
        "meta_object_id": "2025-204A",
        "meta_epoch": "2025-12-01T13:49:44.445504",
        "meta_mean_motion": 15.49226524,
        "meta_eccentricity": 0.00036473,
        "meta_inclination": 51.6309,
        "meta_ra_of_asc_node": 197.7449,
        "meta_arg_of_pericenter": 190.9481,
        "meta_mean_anomaly": 169.1428,
        "meta_ephemeris_type": 0,
        "meta_classification_type": "U",
        "meta_norad_cat_id": 65586,
        "meta_element_set_no": 999,
        "meta_rev_at_epoch": 27,
        "meta_bstar": 0.00016365535,
        "meta_mean_motion_dot": 8.648e-05,
        "meta_mean_motion_ddot": 0,
        "tle_line1": "1 65586U 25204A   25335.57620886  .00008648  00000+0  16366-3 0  9993",
        "tle_line2": "2 65586  51.6309 197.7449 0003647 190.9481 169.1428 15.49226524   279"
      },
      "geometry": {
        "type": "Point",
        "coordinates": [
          -16.913105446021362,
          32.80100150927244
        ]
      }
    },
    {
      "type": "Feature",
      "properties": {
        "norad_id": 65616,
        "name": "CYGNUS NG-23",
        "group": "stations",
        "lat": 32.801001073257304,
        "lon": -16.913104877950097,
        "alt_km": 413.36086549167703,
        "timestamp": "2025-12-02T08:59:31.521577+00:00",
        "meta_object_name": "CYGNUS NG-23",
        "meta_object_id": "2025-208A",
        "meta_epoch": "2025-12-01T13:49:44.445504",
        "meta_mean_motion": 15.49226524,
        "meta_eccentricity": 0.00036473,
        "meta_inclination": 51.6309,
        "meta_ra_of_asc_node": 197.7449,
        "meta_arg_of_pericenter": 190.9481,
        "meta_mean_anomaly": 169.1428,
        "meta_ephemeris_type": 0,
        "meta_classification_type": "U",
        "meta_norad_cat_id": 65616,
        "meta_element_set_no": 999,
        "meta_rev_at_epoch": 22,
        "meta_bstar": 0.00016365535,
        "meta_mean_motion_dot": 8.648e-05,
        "meta_mean_motion_ddot": 0,
        "tle_line1": "1 65616U 25208A   25335.57620886  .00008648  00000+0  16366-3 0  9991",
        "tle_line2": "2 65616  51.6309 197.7449 0003647 190.9481 169.1428 15.49226524   228"
      },
      "geometry": {
        "type": "Point",
        "coordinates": [
          -16.913104877950097,
          32.801001073257304
        ]
      }
    }
  ]
}